[{"OBJECT_NAME":"TIGER-6","OBJECT_ID":"2023-174S","EPOCH":"2026-03-09T17:36:28.852992","MEAN_MOTION":15.68857868,"ECCENTRICITY":0.0003121,"INCLINATION":97.3904,"RA_OF_ASC_NODE":161.9275,"ARG_OF_PERICENTER":155.9023,"MEAN_ANOMALY":204.2385,"EPHEMERIS_TYPE":0,"CLASSIFICATION_TYPE":"U","NORAD_CAT_ID":58272,"ELEMENT_SET_NO":999,"REV_AT_EPOCH":13064,"BSTAR":0.00098002434,"MEAN_MOTION_DOT":0.00113437,"MEAN_MOTION_DDOT":0},{"OBJECT_NAME":"STARLINK-11124 [DTC]","OBJECT_ID":"2024-107H","EPOCH":"2026-03-09T22:22:10.406496","MEAN_MOTION":15.69720659,"ECCENTRICITY":8.604e-5,"INCLINATION":53.1594,"RA_OF_ASC_NODE":250.0897,"ARG_OF_PERICENTER":95.0284,"MEAN_ANOMALY":265.0832,"EPHEMERIS_TYPE":0,"CLASSIFICATION_TYPE":"U","NORAD_CAT_ID":59952,"ELEMENT_SET_NO":999,"REV_AT_EPOCH":10225,"BSTAR":-1.8987869e-5,"MEAN_MOTION_DOT":-2.889e-5,"MEAN_MOTION_DDOT":0}]
